NORAD_CAT_ID,OBJECT_NAME,OBJECT_TYPE,EPOCH,MEAN_MOTION,ECCENTRICITY,INCLINATION,RA_OF_ASC_NODE,ARG_OF_PERICENTER,MEAN_ANOMALY,BSTAR,MEAN_MOTION_DOT,MEAN_MOTION_DDOT,TLE_LINE0,TLE_LINE1,TLE_LINE2,SEMIMAJOR_AXIS,PERIOD,APOGEE,PERIGEE,DECAYED
52996.0,STARLINK-4295,PAYLOAD,2024-05-25 16:51:03,15.08832279,0.0001,53.2162,145.504,132.7946,227.313,-7.0469e-05,-1.409e-05,0.0,0 STARLINK-4295,1 52996U 22076L   24146.70212736 -.00001409  00000-0 -70469-4 0  9999,2 52996  53.2162 145.5040 0001000 132.7946 227.3130 15.08832279104732,6917.904,95.438,540.461,539.077,0.0
52996.0,STARLINK-4295,PAYLOAD,2024-05-26 03:58:45,15.08840303,0.0001309,53.2159,143.4153,86.9955,273.1187,3.0385e-05,1.96e-06,0.0,0 STARLINK-4295,1 52996U 22076L   24147.16580235  .00000196  00000-0  30385-4 0  9995,2 52996  53.2159 143.4153 0001309  86.9955 273.1187 15.08840303104808,6917.879,95.438,540.65,538.839,0.0
52996.0,STARLINK-4295,PAYLOAD,2024-05-26 10:20:17,15.08842549,0.0001122,53.2161,142.2255,77.6675,282.4443,3.5778e-05,2.82e-06,0.0,0 STARLINK-4295,1 52996U 22076L   24147.43076029  .00000282  00000-0  35778-4 0  9993,2 52996  53.2161 142.2255 0001122  77.6675 282.4443 15.08842549104374,6917.873,95.437,540.514,538.961,0.0
52996.0,STARLINK-4295,PAYLOAD,2024-05-26 16:41:52,15.08801182,0.0001139,53.2168,141.035,107.4868,252.6249,-0.00020947,-3.616e-05,0.0,0 STARLINK-4295,1 52996U 22076L   24147.69575112 -.00003616  00000-0 -20947-3 0  9995,2 52996  53.2168 141.0350 0001139 107.4868 252.6249 15.08801182104885,6917.999,95.44,540.652,539.076,0.0
52996.0,STARLINK-4295,PAYLOAD,2024-05-26 23:03:23,15.08833616,0.0001106,53.2168,139.8452,96.1614,263.9504,8.6641e-05,1.091e-05,0.0,0 STARLINK-4295,1 52996U 22076L   24147.96068533  .00001091  00000-0  86641-4 0  9996,2 52996  53.2168 139.8452 0001106  96.1614 263.9504 15.08833616104459,6917.9,95.438,540.53,539.0,0.0
52996.0,STARLINK-4295,PAYLOAD,2024-05-27 03:49:32,15.08841901,0.0001284,53.2168,138.9529,94.9913,265.1226,0.00014638,2.043e-05,0.0,0 STARLINK-4295,1 52996U 22076L   24148.15939897  .00002043  00000-0  14638-3 0  9992,2 52996  53.2168 138.9529 0001284  94.9913 265.1226 15.08841901104955,6917.875,95.437,540.628,538.851,0.0
52996.0,STARLINK-4295,PAYLOAD,2024-05-27 08:35:41,15.08842319,0.0001296,53.2169,138.062,100.3,259.8138,0.0001375,1.901e-05,0.0,0 STARLINK-4295,1 52996U 22076L   24148.35811909  .00001901  00000-0  13750-3 0  9993,2 52996  53.2169 138.0620 0001296 100.3000 259.8138 15.08842319104519,6917.873,95.437,540.635,538.842,0.0
52996.0,STARLINK-4295,PAYLOAD,2024-05-27 16:32:37,15.0884291,0.00014,53.2168,136.5754,82.4322,277.6829,0.00012728,1.738e-05,0.0,0 STARLINK-4295,1 52996U 22076L   24148.68931915  .00001738  00000-0  12728-3 0  9991,2 52996  53.2168 136.5754 0001400  82.4322 277.6829 15.08842910104560,6917.871,95.437,540.705,538.768,0.0
52996.0,STARLINK-4295,PAYLOAD,2024-05-28 05:15:42,15.08840476,0.0001401,53.2167,134.1963,86.4946,273.6207,5.2607e-05,5.49e-06,0.0,0 STARLINK-4295,1 52996U 22076L   24149.21924309  .00000549  00000-0  52607-4 0  9990,2 52996  53.2167 134.1963 0001401  86.4946 273.6207 15.08840476105115,6917.879,95.438,540.713,538.775,0.0
52996.0,STARLINK-4295,PAYLOAD,2024-05-28 08:26:28,15.08842571,0.0001434,53.2167,133.6013,85.0831,275.0325,6.923e-05,8.14e-06,0.0,0 STARLINK-4295,1 52996U 22076L   24149.35172116  .00000814  00000-0  69230-4 0  9991,2 52996  53.2167 133.6013 0001434  85.0831 275.0325 15.08842571104663,6917.873,95.437,540.73,538.746,0.0
52996.0,STARLINK-4295,PAYLOAD,2024-05-29 05:06:32,15.08795912,0.0001676,53.2175,129.7303,43.6391,316.4734,-0.00031716,-5.326e-05,0.0,0 STARLINK-4295,1 52996U 22076L   24150.21288000 -.00005326  00000-0 -31716-3 0  9990,2 52996  53.2175 129.7303 0001676  43.6391 316.4734 15.08795912104793,6918.015,95.44,541.04,538.721,0.0
52996.0,STARLINK-4295,PAYLOAD,2024-05-29 05:06:33,15.08794814,0.0001612,53.2166,129.7352,49.5916,310.5216,-0.00037283,-6.209e-05,0.0,0 STARLINK-4295,1 52996U 22076L   24150.21288266 -.00006209  00000-0 -37283-3 0  9990,2 52996  53.2166 129.7352 0001612  49.5916 310.5216 15.08794814105268,6918.019,95.44,540.999,538.768,0.0
52996.0,STARLINK-4295,PAYLOAD,2024-05-30 09:44:38,15.08113038,0.0001203,53.2169,124.3849,82.8942,277.2187,-0.0053447,-0.00082715,0.0,0 STARLINK-4295,1 52996U 22076L   24151.40600514 -.00082715  00000-0 -53447-2 0  9991,2 52996  53.2169 124.3849 0001203  82.8942 277.2187 15.08113038105447,6920.103,95.484,542.801,541.136,0.0
52996.0,STARLINK-4295,PAYLOAD,2024-05-30 22:28:22,15.07851311,0.0002463,53.2158,122.0123,48.9688,311.1517,-0.0060764,-0.00093204,0.0,0 STARLINK-4295,1 52996U 22076L   24151.93636984 -.00093204  00000-0 -60764-2 0  9994,2 52996  53.2158 122.0123 0002463  48.9688 311.1517 15.07851311105058,6920.904,95.5,544.474,541.064,0.0
52996.0,STARLINK-4295,PAYLOAD,2024-05-31 06:00:00,15.07188965,0.0001437,53.2157,120.6068,88.2849,175.5858,-0.00043792,-6.94e-05,0.0,0 STARLINK-4295,1 52996U 22076L   24152.25001157 -.00006940  00000-0 -43792-3 0  9992,2 52996  53.2157 120.6068 0001437  88.2849 175.5858 15.07188965105570,6922.932,95.542,545.791,543.802,0.0
52996.0,STARLINK-4295,PAYLOAD,2024-05-31 14:00:01,15.07217605,0.0001353,53.2155,119.1132,86.8158,186.6536,-0.0018249,-0.00027963,0.0,0 STARLINK-4295,1 52996U 22076L   24152.58334491 -.00027963  00000-0 -18249-2 0  9994,2 52996  53.2155 119.1132 0001353  86.8158 186.6536 15.07217605  5699,6922.844,95.54,545.646,543.772,0.0
52996.0,STARLINK-4295,PAYLOAD,2024-05-31 22:00:00,15.07209087,0.0001386,53.2157,117.6199,96.6226,186.4731,0.001692,0.00025568,0.0,0 STARLINK-4295,1 52996U 22076L   24152.91667824  .00025568  00000-0  16920-2 0  9991,2 52996  53.2157 117.6199 0001386  96.6226 186.4731 15.07209087105677,6922.87,95.541,545.694,543.775,0.0
52996.0,STARLINK-4295,PAYLOAD,2024-06-01 06:00:00,15.07212654,0.0001392,53.2155,116.1289,83.4079,209.3287,-0.0018733,-0.0002869,0.0,0 STARLINK-4295,1 52996U 22076L   24153.25001157 -.00028690  00000-0 -18733-2 0  9995,2 52996  53.2155 116.1289 0001392  83.4079 209.3287 15.07212654105727,6922.859,95.541,545.688,543.76,0.0
52996.0,STARLINK-4295,PAYLOAD,2024-06-01 14:00:01,15.07206619,0.0001321,53.2152,114.6351,86.7612,215.6001,-0.0013737,-0.00021133,0.0,0 STARLINK-4295,1 52996U 22076L   24153.58334491 -.00021133  00000-0 -13737-2 0  9995,2 52996  53.2152 114.6351 0001321  86.7612 215.6001 15.07206619  5859,6922.877,95.541,545.657,543.828,0.0
52996.0,STARLINK-4295,PAYLOAD,2024-06-01 22:00:00,15.07207538,0.0001368,53.2153,113.142,94.9285,217.0519,0.00091329,0.00013647,0.0,0 STARLINK-4295,1 52996U 22076L   24153.91667824  .00013647  00000-0  91329-3 0  9994,2 52996  53.2153 113.1420 0001368  94.9285 217.0519 15.07207538105828,6922.875,95.541,545.687,543.793,0.0
52996.0,STARLINK-4295,PAYLOAD,2024-06-02 14:00:01,15.07210432,0.0001324,53.2148,110.157,92.9821,238.2629,-0.00097655,-0.00015119,0.0,0 STARLINK-4295,1 52996U 22076L   24154.58334491 -.00015119  00000-0 -97655-3 0  9995,2 52996  53.2148 110.1570 0001324  92.9821 238.2629 15.07210432105926,6922.866,95.541,545.647,543.814,0.0
52996.0,STARLINK-4295,PAYLOAD,2024-06-02 22:00:00,15.07220664,0.0001385,53.2149,108.664,98.3461,242.5235,-5.0256e-05,-1.049e-05,0.0,0 STARLINK-4295,1 52996U 22076L   24154.91667824 -.00001049  00000-0 -50256-4 0  9995,2 52996  53.2149 108.6640 0001385  98.3461 242.5235 15.07220664  5865,6922.834,95.54,545.658,543.741,0.0
52996.0,STARLINK-4295,PAYLOAD,2024-06-03 04:27:04,15.07210698,0.0001515,53.2181,107.4618,87.1485,272.968,0.00011089,1.405e-05,0.0,0 STARLINK-4295,1 52996U 22076L   24155.18546795  .00001405  00000-0  11089-3 0  9992,2 52996  53.2181 107.4618 0001515  87.1485 272.9680 15.07210698106016,6922.865,95.541,545.779,543.681,0.0
52996.0,STARLINK-4295,PAYLOAD,2024-06-03 14:00:00,15.07208103,0.0001599,53.2184,105.6787,84.3573,275.7601,7.2725e-05,8.24e-06,0.0,0 STARLINK-4295,1 52996U 22076L   24155.58334179  .00000824  00000-0  72725-4 0  9996,2 52996  53.2184 105.6787 0001599  84.3573 275.7601 15.07208103105601,6922.873,95.541,545.845,543.631,0.0
52996.0,STARLINK-4295,PAYLOAD,2024-06-04 02:43:55,15.07193494,0.0001385,53.2167,103.3025,90.1751,269.9399,0.00028021,3.983e-05,0.0,0 STARLINK-4295,1 52996U 22076L   24156.11384240  .00003983  00000-0  28021-3 0  9998,2 52996  53.2167 103.3025 0001385  90.1751 269.9399 15.07193494106154,6922.918,95.542,545.742,543.824,0.0
52996.0,STARLINK-4295,PAYLOAD,2024-06-04 05:54:53,15.07212295,0.0001385,53.2172,102.7078,91.9481,268.1669,9.1758e-05,1.114e-05,0.0,0 STARLINK-4295,1 52996U 22076L   24156.24645646  .00001114  00000-0  91758-4 0  9994,2 52996  53.2172 102.7078 0001385  91.9481 268.1669 15.07212295106174,6922.86,95.541,545.684,543.766,0.0
52996.0,STARLINK-4295,PAYLOAD,2024-06-04 13:52:20,15.07211792,0.0001377,53.216,101.2252,92.8731,267.2418,8.7349e-05,1.047e-05,0.0,0 STARLINK-4295,1 52996U 22076L   24156.57801578  .00001047  00000-0  87349-4 0  9994,2 52996  53.2160 101.2252 0001377  92.8731 267.2418 15.07211792105754,6922.862,95.541,545.68,543.773,0.0
52996.0,STARLINK-4295,PAYLOAD,2024-06-05 13:44:41,15.07199546,0.0001977,53.2177,96.7698,92.3091,267.8126,-1.9165e-05,-5.75e-06,0.0,0 STARLINK-4295,1 52996U 22076L   24157.57270444 -.00000575  00000-0 -19165-4 0  9995,2 52996  53.2177  96.7698 0001977  92.3091 267.8126 15.07199546105905,6922.899,95.541,546.133,543.395,0.0
52996.0,STARLINK-4295,PAYLOAD,2024-06-05 20:06:38,15.0720018,0.0001764,53.2157,95.5824,90.0671,270.0522,2.2614e-05,6.1e-07,0.0,0 STARLINK-4295,1 52996U 22076L   24157.83795005  .00000061  00000-0  22614-4 0  9990,2 52996  53.2157  95.5824 0001764  90.0671 270.0522 15.07200180106414,6922.897,95.541,545.983,543.541,0.0
52996.0,STARLINK-4295,PAYLOAD,2024-06-06 02:28:36,15.07200482,0.0001674,53.2151,94.3951,91.2731,268.8452,2.6793e-05,1.24e-06,0.0,0 STARLINK-4295,1 52996U 22076L   24158.10319860  .00000124  00000-0  26793-4 0  9994,2 52996  53.2151  94.3951 0001674  91.2731 268.8452 15.07200482105989,6922.896,95.541,545.92,543.602,0.0
